ONEWEB-0328             
1 49197U 21083M   24176.82928935 -.00000268  00000+0 -76970-3 0  9999
2 49197  87.8929 104.0128 0001902  71.5481 288.5855 13.13471623137361
ONEWEB-0331             
1 49198U 21083N   24176.34891040  .00000033  00000+0  51969-4 0  9993
2 49198  87.9150 119.3524 0001907  83.8444 276.2905 13.18686317134740
ONEWEB-0333             
1 49199U 21083P   24176.36746124 -.00000174  00000+0 -51241-3 0  9998
2 49199  87.8934 104.1310 0002219  77.7542 282.3835 13.13469594136027
ONEWEB-0334             
1 49200U 21083Q   24176.23967631  .00000134  00000+0  29716-3 0  9991
2 49200  87.9201  58.3171 0002684  81.0275 279.1162 13.20773639141366
ONEWEB-0335             
1 49201U 21083R   24176.36270918  .00001278  00000+0  34642-2 0  9994
2 49201  87.8940 104.1203 0001888  79.6656 280.4686 13.13461522136034
ONEWEB-0336             
1 49202U 21083S   24176.33255688  .00000341  00000+0  89924-3 0  9993
2 49202  87.8936 104.1230 0002151  81.3561 278.7812 13.13471936136029
ONEWEB-0337             
1 49203U 21083T   24176.34194408  .00000208  00000+0  53354-3 0  9997
2 49203  87.8937 104.1198 0001903  77.8047 282.3295 13.13471068136029
ONEWEB-0338             
1 49204U 21083U   24176.62477597 -.00001346  00000+0 -33439-2 0  9999
2 49204  87.9211  58.2219 0002048  69.0155 291.1198 13.20760436141432
ONEWEB-0339             
1 49205U 21083V   24176.35318843 -.00000019  00000+0 -86679-4 0  9990
2 49205  87.8937 104.1125 0001932  76.5249 283.6096 13.13470882136007
ONEWEB-0340             
1 49206U 21083W   24176.86580829  .00000042  00000+0  73306-4 0  9999
2 49206  87.9150 119.2443 0001965  83.6372 276.4983 13.18685055136064
ONEWEB-0341             
1 49207U 21083X   24176.34257869  .00000088  00000+0  19089-3 0  9995
2 49207  87.9149 119.3623 0001724  60.6305 299.4999 13.18685608134725
ONEWEB-0342             
1 49208U 21083Y   24176.70684300  .00000058  00000+0  11039-3 0  9994
2 49208  87.9200  58.2173 0002025  77.4276 282.7083 13.20772829142715
ONEWEB-0343             
1 49209U 21083Z   24176.86896309  .00000002  00000+0 -27241-4 0  9999
2 49209  87.9141 119.2642 0001906  62.7514 297.3812 13.18685940136133
ONEWEB-0344             
1 49210U 21083AA  24176.31985776  .00000292  00000+0  76363-3 0  9996
2 49210  87.8938 104.1361 0001547  74.0834 286.0465 13.13471593136008
ONEWEB-0345             
1 49211U 21083AB  24176.33731581  .00000292  00000+0  76457-3 0  9996
2 49211  87.8934 104.1081 0001476  74.3625 285.7667 13.13471131136015
ONEWEB-0346             
1 49212U 21083AC  24176.34731617  .00000081  00000+0  17296-3 0  9990
2 49212  87.9149 119.3702 0001833  91.3108 268.8234 13.18685049134712
ONEWEB-0348             
1 49213U 21083AD  24176.62161293  .00000083  00000+0  17164-3 0  9995
2 49213  87.9209  58.2072 0001180  92.5555 267.5713 13.20772454141430
ONEWEB-0350             
1 49214U 21083AE  24176.80390283  .00000181  00000+0  46059-3 0  9993
2 49214  87.8936 104.0063 0001656  72.4703 287.6607 13.13471298137408
ONEWEB-0351             
1 49215U 21083AF  24176.61516599  .00000069  00000+0  13783-3 0  9996
2 49215  87.9205  58.2070 0002737  71.0583 289.0847 13.20770389141395
ONEWEB-0352             
1 49216U 21083AG  24176.86104593  .00000355  00000+0  93830-3 0  9990
2 49216  87.8937 104.0260 0002216  73.7311 286.4062 13.13471002137508
ONEWEB-0354             
1 49217U 21083AH  24176.71630922  .00000055  00000+0  10328-3 0  9993
2 49217  87.9207  58.1723 0001562  72.4238 287.7066 13.20773423142751
ONEWEB-0355             
1 49218U 21083AJ  24176.35794011 -.00000205  00000+0 -59616-3 0  9996
2 49218  87.8937 104.1256 0001998  74.0423 286.0926 13.13471713136019
ONEWEB-0357             
1 49219U 21083AK  24176.71315528  .00000062  00000+0  11961-3 0  9999
2 49219  87.9206  58.1909 0001876  74.4357 285.6984 13.20772801142744
ONEWEB-0332             
1 49279U 21090A   24176.25191254  .00000216  00000+0  54877-3 0  9994
2 49279  87.8964  73.5532 0002270  79.2559 280.8826 13.14504774132600
ONEWEB-0347             
1 49280U 21090B   24176.70368433  .00000035  00000+0  55279-4 0  9998
2 49280  87.9209  58.1920 0002371  84.0246 276.1157 13.20769671135675
ONEWEB-0349             
1 49281U 21090C   24176.12919722  .00000049  00000+0  88654-4 0  9996
2 49281  87.9208  58.3063 0001965  80.2854 279.8501 13.20774499134380
ONEWEB-0353             
1 49282U 21090D   24176.24398253  .00000243  00000+0  62076-3 0  9995
2 49282  87.8964  73.5394 0002215  78.8407 281.2972 13.14505107132604
ONEWEB-0356             
1 49283U 21090E   24176.73367172 -.00000038  00000+0 -12659-3 0  9992
2 49283  87.9209  58.1804 0001954 108.0839 252.0507 13.20772475135757
ONEWEB-0358             
1 49284U 21090F   24176.23336057  .00000092  00000+0  19323-3 0  9999
2 49284  87.9208  58.2667 0001611  88.1634 271.9684 13.20772453135129
ONEWEB-0359             
1 49285U 21090G   24176.60898884  .00000054  00000+0  10089-3 0  9990
2 49285  87.9207  58.2097 0001407  72.7035 287.4252 13.20773128135159
ONEWEB-0360             
1 49286U 21090H   24176.59950931 -.00000033  00000+0 -11308-3 0  9995
2 49286  87.9207  58.2165 0001755  78.9488 281.1842 13.20773707134464
ONEWEB-0361             
1 49287U 21090J   24176.12603301  .00000018  00000+0  11835-4 0  9998
2 49287  87.9208  58.3054 0001921  85.3001 274.8352 13.20769971134858
ONEWEB-0362             
1 49288U 21090K   24176.26410313  .00000091  00000+0  19488-3 0  9995
2 49288  87.9156  88.8461 0002071  67.8317 292.3036 13.19723724131566
ONEWEB-0363             
1 49289U 21090L   24176.59635582  .00000018  00000+0  13297-4 0  9991
2 49289  87.9208  58.2068 0001757  92.9492 267.1842 13.20771688134924
ONEWEB-0364             
1 49290U 21090M   24176.17970261  .00000097  00000+0  20661-3 0  9992
2 49290  87.9210  58.3150 0001912  83.5258 276.6093 13.20772543136006
ONEWEB-0365             
1 49291U 21090N   24176.27359157  .00000033  00000+0  50667-4 0  9999
2 49291  87.9148  88.8239 0002058  75.4792 284.6569 13.19726715131075
ONEWEB-0366             
1 49292U 21090P   24176.77363659  .00000189  00000+0  47522-3 0  9994
2 49292  87.8963  73.4427 0002026  78.1805 281.9552 13.14504258133951
ONEWEB-0367             
1 49293U 21090Q   24176.59478263  .00000031  00000+0  44204-4 0  9994
2 49293  87.9208  58.2016 0002092  84.3656 275.7716 13.20773291134446
ONEWEB-0368             
1 49294U 21090R   24176.18917571  .00000066  00000+0  12923-3 0  9990
2 49294  87.9211  58.3129 0002535  95.8635 264.2787 13.20772313135540
ONEWEB-0369             
1 49295U 21090S   24176.26884698  .00001153  00000+0  28483-2 0  9998
2 49295  87.9151  88.8260 0002346  67.4831 292.6550 13.19723566131061
ONEWEB-0370             
1 49296U 21090T   24176.60425286  .00000037  00000+0  60056-4 0  9995
2 49296  87.9208  58.2041 0001574  72.0231 288.1073 13.20770633134489
ONEWEB-0371             
1 49297U 21090U   24176.27673533  .00000016  00000+0  86266-5 0  9998
2 49297  87.9156  88.8165 0002068  74.9623 285.1738 13.19723695131108
ONEWEB-0372             
1 49298U 21090V   24176.74458472  .00000051  00000+0  94428-4 0  9991
2 49298  87.9209  58.1845 0001989  76.7049 283.4306 13.20771462135772
ONEWEB-0373             
1 49299U 21090W   24176.62002907  .00000038  00000+0  62674-4 0  9990
2 49299  87.9207  58.2253 0002015  89.2512 270.8852 13.20771730135640
ONEWEB-0374             
1 49300U 21090X   24176.22812875  .00000041  00000+0  76074-4 0  9995
2 49300  87.8958  73.5371 0001990  77.7953 282.3400 13.14501078133877
ONEWEB-0375             
1 49301U 21090Y   24176.60741043  .00000063  00000+0  12284-3 0  9992
2 49301  87.9208  58.2039 0001584 104.5404 255.5905 13.20772701135141
ONEWEB-0376             
1 49302U 21090Z   24176.27517471  .00000061  00000+0  11940-3 0  9998
2 49302  87.9149  88.8246 0002265  75.2181 284.9203 13.19726701131104
ONEWEB-0377             
1 49303U 21090AA  24176.59334481  .00000038  00000+0  61247-4 0  9992
2 49303  87.9209  58.1984 0001658  75.4825 284.6492 13.20771277135137
ONEWEB-0378             
1 49304U 21090AB  24176.61544383  .00000060  00000+0  11647-3 0  9993
2 49304  87.9209  58.1970 0001833  84.4620 275.6722 13.20771628134406
ONEWEB-0379             
1 49305U 21090AC  24176.22337116  .00000017  00000+0  12644-4 0  9996
2 49305  87.8961  73.5411 0002028  78.3636 281.7721 13.14503577132581
ONEWEB-0380             
1 49306U 21090AD  24176.80272285  .00000040  00000+0  68472-4 0  9992
2 49306  87.9156  88.7245 0001964  76.4147 283.7205 13.19726036132420
ONEWEB-0381             
1 49307U 21090AE  24176.59004818 -.00000002  00000+0 -37567-4 0  9995
2 49307  87.9208  58.2060 0001783  81.9665 278.1670 13.20771733134445
ONEWEB-0382             
1 49308U 21090AF  24176.57742744  .00000093  00000+0  19642-3 0  9992
2 49308  87.9207  58.2054 0001880 102.3762 257.7582 13.20772967134436
ONEWEB-0383             
1 49309U 21090AG  24176.21701807 -.00000364  00000+0 -10159-2 0  9995
2 49309  87.8960  73.5306 0002026  83.8918 276.2443 13.14502322132610
ONEWEB-0384             
1 49310U 21090AH  24176.57426804  .00000037  00000+0  58208-4 0  9991
2 49310  87.9210  58.2176 0001921  97.0933 263.0419 13.20772079134448
ONEWEB-0385             
1 49311U 21090AJ  24176.19075153  .00000121  00000+0  26482-3 0  9999
2 49311  87.9210  58.2953 0001745  92.3901 267.7433 13.20773069134367
ONEWEB-0386             
1 49312U 21090AK  24176.13236765  .00000086  00000+0  17909-3 0  9996
2 49312  87.9203  58.3011 0001924  90.9806 269.1548 13.20773102134375
ONEWEB-0387             
1 49313U 21090AL  24176.19232761  .00000048  00000+0  85651-4 0  9993
2 49313  87.9209  58.3524 0001502  87.3773 272.7532 13.20772600134382
ONEWEB-0388             
1 49314U 21090AM  24176.26727096  .00000086  00000+0  18321-3 0  9993
2 49314  87.9156  88.8351 0002097  81.0431 279.0939 13.19725145131065
